[{"name":"SAR-LUPE 2","l1":"1 31797U 07030A   26183.76356529  .00019821  00000+0  32757-3 0  9997","l2":"2 31797  98.1064 290.1556 0002852 202.8182 157.2942 15.52285277 59351","cat":"other"},{"name":"SAPPHIRE","l1":"1 39088U 13009C   26183.77798966  .00000120  00000+0  56799-4 0  9992","l2":"2 39088  98.4267   2.8639 0010800 196.6808 163.4024 14.35244915698811","cat":"other"},{"name":"PRAETORIAN SDA_602","l1":"1 65565U 25203A   26183.85512075  .00000102  00000+0  81118-4 0  9997","l2":"2 65565  81.3032 356.2587 0006655 146.7193 213.4383 13.83887074 40866","cat":"classified"},{"name":"PRAETORIAN SDA_603","l1":"1 65566U 25203B   26183.81175852  .00003120  00000+0  27998-2 0  9999","l2":"2 65566  81.3065 356.2198 0010323 142.6945 217.4930 13.83925227 40863","cat":"classified"},{"name":"PRAETORIAN SDA_604","l1":"1 65567U 25203C   26183.84117644  .00000065  00000+0  48760-4 0  9995","l2":"2 65567  81.3055 356.6301 0006110 150.2787 209.8717 13.83049189 40841","cat":"classified"},{"name":"PRAETORIAN SDA_605","l1":"1 65568U 25203D   26183.80214312  .00000023  00000+0  10188-4 0  9999","l2":"2 65568  81.3021 356.3141 0008902 142.2371 217.9411 13.83435092 40859","cat":"classified"},{"name":"PRAETORIAN SDA_606","l1":"1 65569U 25203E   26183.71504227  .00000065  00000+0  48612-4 0  9996","l2":"2 65569  81.3058 356.6281 0006759 145.3381 214.8217 13.83199270 40834","cat":"classified"},{"name":"PRAETORIAN SDA_607","l1":"1 65570U 25203F   26183.85546954 -.00003451  00000+0 -31048-2 0  9993","l2":"2 65570  81.3046 356.1319 0009133 148.8430 211.3270 13.84254779 40874","cat":"classified"},{"name":"PRAETORIAN SDA_608","l1":"1 65571U 25203G   26183.83811346  .00000088  00000+0  68468-4 0  9991","l2":"2 65571  81.3010 356.3163 0006612 149.3901 210.7643 13.83818553 40853","cat":"classified"},{"name":"PRAETORIAN SDA_609","l1":"1 65572U 25203H   26183.83858936  .00000213  00000+0  18054-3 0  9993","l2":"2 65572  81.3049 356.2962 0007508 144.4622 215.7036 13.84210698 40862","cat":"classified"},{"name":"PRAETORIAN SDA_610","l1":"1 65573U 25203J   26183.81840358  .00000076  00000+0  58180-4 0  9993","l2":"2 65573  81.3011 356.2940 0007384 149.1111 211.0481 13.83769250 40859","cat":"classified"},{"name":"PRAETORIAN SDA_611","l1":"1 65574U 25203K   26183.82438275  .00000439  00000+0  38950-3 0  9991","l2":"2 65574  81.3015 356.4647 0006173 152.8637 207.2843 13.83310718 40848","cat":"classified"},{"name":"PRAETORIAN SDA_612","l1":"1 65575U 25203L   26183.72224274  .00000165  00000+0  13507-3 0  9990","l2":"2 65575  81.3022 356.1077 0009985 145.4384 214.7424 13.85040999 40865","cat":"classified"},{"name":"PRAETORIAN SDA_613","l1":"1 65576U 25203M   26183.83727477  .00000073  00000+0  55880-4 0  9995","l2":"2 65576  81.3002 356.4622 0006366 143.5306 216.6284 13.82766691 40840","cat":"classified"},{"name":"PRAETORIAN SDA_614","l1":"1 65577U 25203N   26183.42534083  .00000043  00000+0  27247-4 0  9993","l2":"2 65577  81.3016 356.4646 0007826 143.8446 216.3242 13.84778391 40823","cat":"classified"},{"name":"PRAETORIAN SDA_615","l1":"1 65578U 25203P   26183.83960728  .00000202  00000+0  16964-3 0  9998","l2":"2 65578  81.3023 356.0543 0009712 144.0896 216.0915 13.84437727 40876","cat":"classified"},{"name":"PRAETORIAN SDA_616","l1":"1 65579U 25203Q   26183.82406367  .00000209  00000+0  17969-3 0  9995","l2":"2 65579  81.3066 356.6211 0006081 150.9884 209.1612 13.83269442 40841","cat":"classified"},{"name":"PRAETORIAN SDA_617","l1":"1 65580U 25203R   26183.84700203  .00000061  00000+0  44840-4 0  9990","l2":"2 65580  81.3040 356.4295 0008096 143.2612 216.9101 13.83151280 40857","cat":"classified"},{"name":"PRAETORIAN SDA_618","l1":"1 65581U 25203S   26183.73277182  .00000219  00000+0  18520-3 0  9994","l2":"2 65581  81.3016 356.0813 0010464 147.7075 212.4724 13.84225059 40867","cat":"classified"},{"name":"PRAETORIAN SDA_619","l1":"1 65582U 25203T   26183.84871051  .00000162  00000+0  13566-3 0  9994","l2":"2 65582  81.3045 356.2917 0008904 144.8170 215.3576 13.83806831 41496","cat":"classified"},{"name":"PRAETORIAN SDA_620","l1":"1 65583U 25203U   26183.73425556 -.00008305  00000+0 -75514-2 0  9997","l2":"2 65583  81.3057 356.4185 0008502 152.4200 207.7409 13.83561694 40845","cat":"classified"},{"name":"PRAETORIAN SDA_621","l1":"1 65584U 25203V   26183.85053028  .00000076  00000+0  57483-4 0  9994","l2":"2 65584  81.3023 356.2247 0008156 138.3948 221.7830 13.83802907 40864","cat":"classified"},{"name":"PRAETORIAN SDA_601","l1":"1 65585U 25203W   26183.82833031  .00000037  00000+0  22493-4 0  9992","l2":"2 65585  81.3042 356.5592 0006103 153.6874 206.4593 13.83169137 40845","cat":"classified"},{"name":"VICTUS HAZE PUMA","l1":"1 69646U 26142A   26183.74402662  .00000347  00000+0  18769-4 0  9995","l2":"2 69646  97.4463  81.1918 0021972 308.5743  51.3524 15.20936170  2034","cat":"other"}]