OBJECT_NAME,OBJECT_ID,EPOCH,MEAN_MOTION,ECCENTRICITY,INCLINATION,RA_OF_ASC_NODE,ARG_OF_PERICENTER,MEAN_ANOMALY,EPHEMERIS_TYPE,CLASSIFICATION_TYPE,NORAD_CAT_ID,ELEMENT_SET_NO,REV_AT_EPOCH,BSTAR,MEAN_MOTION_DOT,MEAN_MOTION_DDOT
SAR-LUPE 2,2007-030A,2026-07-02T18:19:32.041056,15.52285277,.0002852,98.1064,290.1556,202.8182,157.2942,0,U,31797,999,5935,.32757E-3,.19821E-3,0
SAPPHIRE,2013-009C,2026-07-02T18:40:18.306624,14.35244915,.00108,98.4267,2.8639,196.6808,163.4024,0,U,39088,999,69881,.56799E-4,.12E-5,0
PRAETORIAN SDA_602,2025-203A,2026-07-02T20:31:22.432800,13.83887074,.0006655,81.3032,356.2587,146.7193,213.4383,0,U,65565,999,4086,.81118E-4,.102E-5,0
PRAETORIAN SDA_603,2025-203B,2026-07-02T19:28:55.936128,13.83925227,.0010323,81.3065,356.2198,142.6945,217.4930,0,U,65566,999,4086,.27998E-2,.312E-4,0
PRAETORIAN SDA_604,2025-203C,2026-07-02T20:11:17.644416,13.83049189,.000611,81.3055,356.6301,150.2787,209.8717,0,U,65567,999,4084,.4876E-4,.65E-6,0
PRAETORIAN SDA_605,2025-203D,2026-07-02T19:15:05.165568,13.83435092,.0008902,81.3021,356.3141,142.2371,217.9411,0,U,65568,999,4085,.10188E-4,.23E-6,0
PRAETORIAN SDA_606,2025-203E,2026-07-02T17:09:39.652128,13.83199270,.0006759,81.3058,356.6281,145.3381,214.8217,0,U,65569,999,4083,.48612E-4,.65E-6,0
PRAETORIAN SDA_607,2025-203F,2026-07-02T20:31:52.568256,13.84254779,.0009133,81.3046,356.1319,148.8430,211.3270,0,U,65570,999,4087,-.31048E-2,-.3451E-4,0
PRAETORIAN SDA_608,2025-203G,2026-07-02T20:06:53.002944,13.83818553,.0006612,81.3010,356.3163,149.3901,210.7643,0,U,65571,999,4085,.68468E-4,.88E-6,0
PRAETORIAN SDA_609,2025-203H,2026-07-02T20:07:34.120704,13.84210698,.0007508,81.3049,356.2962,144.4622,215.7036,0,U,65572,999,4086,.18054E-3,.213E-5,0
PRAETORIAN SDA_610,2025-203J,2026-07-02T19:38:30.069312,13.83769250,.0007384,81.3011,356.2940,149.1111,211.0481,0,U,65573,999,4085,.5818E-4,.76E-6,0
PRAETORIAN SDA_611,2025-203K,2026-07-02T19:47:06.669600,13.83310718,.0006173,81.3015,356.4647,152.8637,207.2843,0,U,65574,999,4084,.3895E-3,.439E-5,0
PRAETORIAN SDA_612,2025-203L,2026-07-02T17:20:01.772736,13.85040999,.0009985,81.3022,356.1077,145.4384,214.7424,0,U,65575,999,4086,.13507E-3,.165E-5,0
PRAETORIAN SDA_613,2025-203M,2026-07-02T20:05:40.540128,13.82766691,.0006366,81.3002,356.4622,143.5306,216.6284,0,U,65576,999,4084,.5588E-4,.73E-6,0
PRAETORIAN SDA_614,2025-203N,2026-07-02T10:12:29.447712,13.84778391,.0007826,81.3016,356.4646,143.8446,216.3242,0,U,65577,999,4082,.27247E-4,.43E-6,0
PRAETORIAN SDA_615,2025-203P,2026-07-02T20:09:02.068992,13.84437727,.0009712,81.3023,356.0543,144.0896,216.0915,0,U,65578,999,4087,.16964E-3,.202E-5,0
PRAETORIAN SDA_616,2025-203Q,2026-07-02T19:46:39.101088,13.83269442,.0006081,81.3066,356.6211,150.9884,209.1612,0,U,65579,999,4084,.17969E-3,.209E-5,0
PRAETORIAN SDA_617,2025-203R,2026-07-02T20:19:40.975392,13.83151280,.0008096,81.3040,356.4295,143.2612,216.9101,0,U,65580,999,4085,.4484E-4,.61E-6,0
PRAETORIAN SDA_618,2025-203S,2026-07-02T17:35:11.485248,13.84225059,.0010464,81.3016,356.0813,147.7075,212.4724,0,U,65581,999,4086,.1852E-3,.219E-5,0
PRAETORIAN SDA_619,2025-203T,2026-07-02T20:22:08.588064,13.83806831,.0008904,81.3045,356.2917,144.8170,215.3576,0,U,65582,999,4149,.13566E-3,.162E-5,0
PRAETORIAN SDA_620,2025-203U,2026-07-02T17:37:19.680384,13.83561694,.0008502,81.3057,356.4185,152.4200,207.7409,0,U,65583,999,4084,-.75514E-2,-.8305E-4,0
PRAETORIAN SDA_621,2025-203V,2026-07-02T20:24:45.816192,13.83802907,.0008156,81.3023,356.2247,138.3948,221.7830,0,U,65584,999,4086,.57483E-4,.76E-6,0
PRAETORIAN SDA_601,2025-203W,2026-07-02T19:52:47.738784,13.83169137,.0006103,81.3042,356.5592,153.6874,206.4593,0,U,65585,999,4084,.22493E-4,.37E-6,0
VICTUS HAZE PUMA,2026-142A,2026-07-02T17:51:23.899968,15.20936170,.0021972,97.4463,81.1918,308.5743,51.3524,0,U,69646,999,203,.18769E-4,.347E-5,0
